[{"OBJECT_NAME":"STARLINK-6271","OBJECT_ID":"2023-061Z","EPOCH":"2026-03-09T22:00:01.999584","MEAN_MOTION":15.05341273,"ECCENTRICITY":0.00025895,"INCLINATION":43.0006,"RA_OF_ASC_NODE":183.6895,"ARG_OF_PERICENTER":272.5802,"MEAN_ANOMALY":85.0944,"EPHEMERIS_TYPE":0,"CLASSIFICATION_TYPE":"U","NORAD_CAT_ID":56397,"ELEMENT_SET_NO":999,"REV_AT_EPOCH":577,"BSTAR":0.0017195032,"MEAN_MOTION_DOT":0.00024916,"MEAN_MOTION_DDOT":0},{"OBJECT_NAME":"FENGYUN 1C DEB","OBJECT_ID":"1999-025EJU","EPOCH":"2026-02-26T20:11:02.200416","MEAN_MOTION":14.76820792,"ECCENTRICITY":0.0127498,"INCLINATION":99.1634,"RA_OF_ASC_NODE":278.149,"ARG_OF_PERICENTER":258.5062,"MEAN_ANOMALY":100.1804,"EPHEMERIS_TYPE":0,"CLASSIFICATION_TYPE":"U","NORAD_CAT_ID":37474,"ELEMENT_SET_NO":999,"REV_AT_EPOCH":63498,"BSTAR":0.0012932,"MEAN_MOTION_DOT":0.00010319,"MEAN_MOTION_DDOT":0}]
